ELECTRON KICK STAGE R/B 
1 67074U 25297C   26005.15454781  .00515178  82959-4  20334-2 0  9995
2 67074  97.4778 158.8906 0157791 184.1542 175.8423 15.70097427  3432
STARLINK-36230          
1 67075U 25298A   26005.14683874  .00086217  00000+0  13874-2 0  9993
2 67075  69.9995 184.1198 0003462 281.1442  78.9356 15.52551560  3469
STARLINK-36240          
1 67076U 25298B   26005.00001157 -.00086171  00000+0 -14110-2 0  9992
2 67076  69.9992 184.5191 0003380 273.5072 348.1226 15.52561389  4714
STARLINK-36243          
1 67077U 25298C   26005.08172049  .00104456  00000+0  16755-2 0  9992
2 67077  69.9995 184.2931 0003240 275.1730  84.9087 15.52568022  3452
STARLINK-36236          
1 67078U 25298D   26005.08138118  .00082806  00000+0  13335-2 0  9997
2 67078  69.9995 184.2916 0003480 275.6244  84.4546 15.52544796  3454
STARLINK-36159          
1 67079U 25298E   26005.16670139 -.00002127  00000+0 -45212-4 0  9992
2 67079  69.9994 184.2596 0003237 271.4007  29.6918 15.42704057  4743
STARLINK-36158          
1 67080U 25298F   26005.14528714 -.00331397  00000+0 -57974-2 0  9993
2 67080  69.9996 184.1126 0003639 290.2115  69.8680 15.51607942  3465
STARLINK-35864          
1 67081U 25298G   26005.16670139 -.02092350  00000+0 -45155-1 0  9997
2 67081  69.9990 184.0599 0003531 276.3782 197.4097 15.47831936  4748
STARLINK-36035          
1 67082U 25298H   26005.16670139 -.02198608  00000+0 -52994-1 0  9990
2 67082  69.9996 184.0766 0003100 275.6770 184.7748 15.44834854  4743
STARLINK-36170          
1 67083U 25298J   26005.07966137  .00042877  00000+0  69510-3 0  9993
2 67083  69.9996 184.2848 0003445 272.9312  87.1480 15.52551137  3456
STARLINK-36166          
1 67084U 25298K   26005.07931880  .00100021  00000+0  16051-2 0  9998
2 67084  69.9996 184.2831 0003417 276.1529  83.9269 15.52571068  3458
STARLINK-35794          
1 67085U 25298L   26005.16670139  .00005478  00000+0  12848-3 0  9997
2 67085  69.9997 184.1008 0003797 268.0162 171.0291 15.42687281  4740
