CCSDS_OMM_VERS = 2.0
CREATION_DATE  = 
ORIGINATOR     = 

OBJECT_NAME    = ELECTRON KICK STAGE R/B
OBJECT_ID      = 2025-297C
CENTER_NAME    = EARTH
REF_FRAME      = TEME
TIME_SYSTEM    = UTC
MEAN_ELEMENT_THEORY = SGP/SGP4

EPOCH          = 2026-01-05T03:42:32.930784
MEAN_MOTION    = 15.70097427
ECCENTRICITY   = .0157791
INCLINATION    = 97.4778
RA_OF_ASC_NODE = 158.8906
ARG_OF_PERICENTER = 184.1542
MEAN_ANOMALY   = 175.8423

EPHEMERIS_TYPE = 0
CLASSIFICATION_TYPE = U
NORAD_CAT_ID   = 67074
ELEMENT_SET_NO = 999
REV_AT_EPOCH   = 343
BSTAR          = .20334E-2
MEAN_MOTION_DOT = .515178E-2
MEAN_MOTION_DDOT = .82959E-4

CCSDS_OMM_VERS = 2.0
CREATION_DATE  = 
ORIGINATOR     = 

OBJECT_NAME    = STARLINK-36230
OBJECT_ID      = 2025-298A
CENTER_NAME    = EARTH
REF_FRAME      = TEME
TIME_SYSTEM    = UTC
MEAN_ELEMENT_THEORY = SGP/SGP4

EPOCH          = 2026-01-05T03:31:26.867136
MEAN_MOTION    = 15.52551560
ECCENTRICITY   = .0003462
INCLINATION    = 69.9995
RA_OF_ASC_NODE = 184.1198
ARG_OF_PERICENTER = 281.1442
MEAN_ANOMALY   = 78.9356

EPHEMERIS_TYPE = 0
CLASSIFICATION_TYPE = U
NORAD_CAT_ID   = 67075
ELEMENT_SET_NO = 999
REV_AT_EPOCH   = 346
BSTAR          = .13874E-2
MEAN_MOTION_DOT = .86217E-3
MEAN_MOTION_DDOT = 0

CCSDS_OMM_VERS = 2.0
CREATION_DATE  = 
ORIGINATOR     = 

OBJECT_NAME    = STARLINK-36240
OBJECT_ID      = 2025-298B
CENTER_NAME    = EARTH
REF_FRAME      = TEME
TIME_SYSTEM    = UTC
MEAN_ELEMENT_THEORY = SGP/SGP4

EPOCH          = 2026-01-05T00:00:00.999648
MEAN_MOTION    = 15.52561389
ECCENTRICITY   = .000338
INCLINATION    = 69.9992
RA_OF_ASC_NODE = 184.5191
ARG_OF_PERICENTER = 273.5072
MEAN_ANOMALY   = 348.1226

EPHEMERIS_TYPE = 0
CLASSIFICATION_TYPE = U
NORAD_CAT_ID   = 67076
ELEMENT_SET_NO = 999
REV_AT_EPOCH   = 471
BSTAR          = -.1411E-2
MEAN_MOTION_DOT = -.86171E-3
MEAN_MOTION_DDOT = 0

CCSDS_OMM_VERS = 2.0
CREATION_DATE  = 
ORIGINATOR     = 

OBJECT_NAME    = STARLINK-36243
OBJECT_ID      = 2025-298C
CENTER_NAME    = EARTH
REF_FRAME      = TEME
TIME_SYSTEM    = UTC
MEAN_ELEMENT_THEORY = SGP/SGP4

EPOCH          = 2026-01-05T01:57:40.650336
MEAN_MOTION    = 15.52568022
ECCENTRICITY   = .000324
INCLINATION    = 69.9995
RA_OF_ASC_NODE = 184.2931
ARG_OF_PERICENTER = 275.1730
MEAN_ANOMALY   = 84.9087

EPHEMERIS_TYPE = 0
CLASSIFICATION_TYPE = U
NORAD_CAT_ID   = 67077
ELEMENT_SET_NO = 999
REV_AT_EPOCH   = 345
BSTAR          = .16755E-2
MEAN_MOTION_DOT = .104456E-2
MEAN_MOTION_DDOT = 0

CCSDS_OMM_VERS = 2.0
CREATION_DATE  = 
ORIGINATOR     = 

OBJECT_NAME    = STARLINK-36236
OBJECT_ID      = 2025-298D
CENTER_NAME    = EARTH
REF_FRAME      = TEME
TIME_SYSTEM    = UTC
MEAN_ELEMENT_THEORY = SGP/SGP4

EPOCH          = 2026-01-05T01:57:11.333952
MEAN_MOTION    = 15.52544796
ECCENTRICITY   = .000348
INCLINATION    = 69.9995
RA_OF_ASC_NODE = 184.2916
ARG_OF_PERICENTER = 275.6244
MEAN_ANOMALY   = 84.4546

EPHEMERIS_TYPE = 0
CLASSIFICATION_TYPE = U
NORAD_CAT_ID   = 67078
ELEMENT_SET_NO = 999
REV_AT_EPOCH   = 345
BSTAR          = .13335E-2
MEAN_MOTION_DOT = .82806E-3
MEAN_MOTION_DDOT = 0

CCSDS_OMM_VERS = 2.0
CREATION_DATE  = 
ORIGINATOR     = 

OBJECT_NAME    = STARLINK-36159
OBJECT_ID      = 2025-298E
CENTER_NAME    = EARTH
REF_FRAME      = TEME
TIME_SYSTEM    = UTC
MEAN_ELEMENT_THEORY = SGP/SGP4

EPOCH          = 2026-01-05T04:00:03.000096
MEAN_MOTION    = 15.42704057
ECCENTRICITY   = .0003237
INCLINATION    = 69.9994
RA_OF_ASC_NODE = 184.2596
ARG_OF_PERICENTER = 271.4007
MEAN_ANOMALY   = 29.6918

EPHEMERIS_TYPE = 0
CLASSIFICATION_TYPE = U
NORAD_CAT_ID   = 67079
ELEMENT_SET_NO = 999
REV_AT_EPOCH   = 474
BSTAR          = -.45212E-4
MEAN_MOTION_DOT = -.2127E-4
MEAN_MOTION_DDOT = 0

CCSDS_OMM_VERS = 2.0
CREATION_DATE  = 
ORIGINATOR     = 

OBJECT_NAME    = STARLINK-36158
OBJECT_ID      = 2025-298F
CENTER_NAME    = EARTH
REF_FRAME      = TEME
TIME_SYSTEM    = UTC
MEAN_ELEMENT_THEORY = SGP/SGP4

EPOCH          = 2026-01-05T03:29:12.808896
MEAN_MOTION    = 15.51607942
ECCENTRICITY   = .0003639
INCLINATION    = 69.9996
RA_OF_ASC_NODE = 184.1126
ARG_OF_PERICENTER = 290.2115
MEAN_ANOMALY   = 69.8680

EPHEMERIS_TYPE = 0
CLASSIFICATION_TYPE = U
NORAD_CAT_ID   = 67080
ELEMENT_SET_NO = 999
REV_AT_EPOCH   = 346
BSTAR          = -.57974E-2
MEAN_MOTION_DOT = -.331397E-2
MEAN_MOTION_DDOT = 0

CCSDS_OMM_VERS = 2.0
CREATION_DATE  = 
ORIGINATOR     = 

OBJECT_NAME    = STARLINK-35864
OBJECT_ID      = 2025-298G
CENTER_NAME    = EARTH
REF_FRAME      = TEME
TIME_SYSTEM    = UTC
MEAN_ELEMENT_THEORY = SGP/SGP4

EPOCH          = 2026-01-05T04:00:03.000096
MEAN_MOTION    = 15.47831936
ECCENTRICITY   = .0003531
INCLINATION    = 69.9990
RA_OF_ASC_NODE = 184.0599
ARG_OF_PERICENTER = 276.3782
MEAN_ANOMALY   = 197.4097

EPHEMERIS_TYPE = 0
CLASSIFICATION_TYPE = U
NORAD_CAT_ID   = 67081
ELEMENT_SET_NO = 999
REV_AT_EPOCH   = 474
BSTAR          = -.45155E-1
MEAN_MOTION_DOT = -.209235E-1
MEAN_MOTION_DDOT = 0

CCSDS_OMM_VERS = 2.0
CREATION_DATE  = 
ORIGINATOR     = 

OBJECT_NAME    = STARLINK-36035
OBJECT_ID      = 2025-298H
CENTER_NAME    = EARTH
REF_FRAME      = TEME
TIME_SYSTEM    = UTC
MEAN_ELEMENT_THEORY = SGP/SGP4

EPOCH          = 2026-01-05T04:00:03.000096
MEAN_MOTION    = 15.44834854
ECCENTRICITY   = .00031
INCLINATION    = 69.9996
RA_OF_ASC_NODE = 184.0766
ARG_OF_PERICENTER = 275.6770
MEAN_ANOMALY   = 184.7748

EPHEMERIS_TYPE = 0
CLASSIFICATION_TYPE = U
NORAD_CAT_ID   = 67082
ELEMENT_SET_NO = 999
REV_AT_EPOCH   = 474
BSTAR          = -.52994E-1
MEAN_MOTION_DOT = -.2198608E-1
MEAN_MOTION_DDOT = 0

CCSDS_OMM_VERS = 2.0
CREATION_DATE  = 
ORIGINATOR     = 

OBJECT_NAME    = STARLINK-36170
OBJECT_ID      = 2025-298J
CENTER_NAME    = EARTH
REF_FRAME      = TEME
TIME_SYSTEM    = UTC
MEAN_ELEMENT_THEORY = SGP/SGP4

EPOCH          = 2026-01-05T01:54:42.742368
MEAN_MOTION    = 15.52551137
ECCENTRICITY   = .0003445
INCLINATION    = 69.9996
RA_OF_ASC_NODE = 184.2848
ARG_OF_PERICENTER = 272.9312
MEAN_ANOMALY   = 87.1480

EPHEMERIS_TYPE = 0
CLASSIFICATION_TYPE = U
NORAD_CAT_ID   = 67083
ELEMENT_SET_NO = 999
REV_AT_EPOCH   = 345
BSTAR          = .6951E-3
MEAN_MOTION_DOT = .42877E-3
MEAN_MOTION_DDOT = 0

CCSDS_OMM_VERS = 2.0
CREATION_DATE  = 
ORIGINATOR     = 

OBJECT_NAME    = STARLINK-36166
OBJECT_ID      = 2025-298K
CENTER_NAME    = EARTH
REF_FRAME      = TEME
TIME_SYSTEM    = UTC
MEAN_ELEMENT_THEORY = SGP/SGP4

EPOCH          = 2026-01-05T01:54:13.144320
MEAN_MOTION    = 15.52571068
ECCENTRICITY   = .0003417
INCLINATION    = 69.9996
RA_OF_ASC_NODE = 184.2831
ARG_OF_PERICENTER = 276.1529
MEAN_ANOMALY   = 83.9269

EPHEMERIS_TYPE = 0
CLASSIFICATION_TYPE = U
NORAD_CAT_ID   = 67084
ELEMENT_SET_NO = 999
REV_AT_EPOCH   = 345
BSTAR          = .16051E-2
MEAN_MOTION_DOT = .100021E-2
MEAN_MOTION_DDOT = 0

CCSDS_OMM_VERS = 2.0
CREATION_DATE  = 
ORIGINATOR     = 

OBJECT_NAME    = STARLINK-35794
OBJECT_ID      = 2025-298L
CENTER_NAME    = EARTH
REF_FRAME      = TEME
TIME_SYSTEM    = UTC
MEAN_ELEMENT_THEORY = SGP/SGP4

EPOCH          = 2026-01-05T04:00:03.000096
MEAN_MOTION    = 15.42687281
ECCENTRICITY   = .0003797
INCLINATION    = 69.9997
RA_OF_ASC_NODE = 184.1008
ARG_OF_PERICENTER = 268.0162
MEAN_ANOMALY   = 171.0291

EPHEMERIS_TYPE = 0
CLASSIFICATION_TYPE = U
NORAD_CAT_ID   = 67085
ELEMENT_SET_NO = 999
REV_AT_EPOCH   = 474
BSTAR          = .12848E-3
MEAN_MOTION_DOT = .5478E-4
MEAN_MOTION_DDOT = 0

